STARLINK-37061          
1 68185U 26050U   26078.56605935 -.00873020  25966-3 -16679-2 0  9997
2 68185  53.1616 232.5178 0000687  57.4494 302.6603 15.99892771  2037
STARLINK-37079          
1 68186U 26050V   26078.56582144 -.00680419  16664-3 -12815-2 0  9995
2 68186  53.1620 232.5158 0001058 326.7573  33.3392 16.00099925  2030
STARLINK-37006          
1 68187U 26050W   26078.56557438 -.00682857  16797-3 -12753-2 0  9990
2 68187  53.1620 232.5147 0000720 325.8020  34.2964 16.00247413  2033
STARLINK-36340          
1 68188U 26050X   26078.56537335 -.00691967  17220-3 -12834-2 0  9999
2 68188  53.1619 232.5131 0000884 330.3319  29.7662 16.00370058  1932
STARLINK-36305          
1 68189U 26050Y   26078.56515448 -.00680572  16745-3 -12521-2 0  9995
2 68189  53.1619 232.5118 0000664 330.0991  30.0002 16.00507461  1930
STARLINK-37071          
1 68190U 26050Z   26078.56469545 -.00685813  17028-3 -12410-2 0  9998
2 68190  53.1620 232.5085 0000787 120.8561 239.2548 16.00795573  2034
STARLINK-37091          
1 68191U 26050AA  26078.56446108 -.00661998  16019-3 -11877-2 0  9992
2 68191  53.1618 232.5067 0000718 334.0180  26.0815 16.00938134  2033
STARLINK-37098          
1 68192U 26050AB  26078.56422956 -.00678632  16763-3 -12086-2 0  9990
2 68192  53.1618 232.5054 0000647 327.3796  32.7195 16.01069674  2039
STARLINK-37090          
1 68193U 26050AC  26078.56374858 -.00651387  15641-3 -11396-2 0  9993
2 68193  53.1621 232.5012 0000711 333.6069  26.4927 16.01369308  2033
STARLINK-37093          
1 68194U 26050AD  26078.56490579 -.00668674  16258-3 -12185-2 0  9992
2 68194  53.1623 232.5098 0001079 125.0257 235.0876 16.00670231  2030
STARLINK-37058          
1 68195U 26050AE  26078.31433581 -.00749084  20203-3 -12605-2 0  9993
2 68195  53.1616 233.7917 0002524 340.0442  20.0490 16.02049525   431
YAOGAN-50 02            
1 68196U 26051A   26079.00002888  .00000241  00000+0  28234-4 0  9993
2 68196 141.9942 256.6193 0085589 153.1893 207.3280 14.02354822   631
CZ-6A R/B               
1 68197U 26051B   26081.26324905  .00001427  00000+0  19734-3 0  9993
2 68197 142.0318 270.6738 0185867 140.7574 220.6787 14.56363282   998
2026-052A               
1 68198U 26052A   26081.24872626  .00008863  00000+0  55007-3 0  9995
2 68198  97.5370 157.4026 0012516 242.4416 117.5543 15.09874697   921
YUXING-3 06             
1 68199U 26052B   26081.77822178  .00005209  00000+0  32387-3 0  9998
2 68199  97.5372 157.9244 0011661 241.9593 118.0457 15.10019513  1001
2026-052C               
1 68200U 26052C   26081.24755073  .00005327  00000+0  32994-3 0  9997
2 68200  97.5366 157.4041 0011362 246.4217 113.5820 15.10146722   914
